[{"OBJECT_NAME":"STARLINK-31892","OBJECT_ID":"2024-097U","EPOCH":"2026-03-09T13:19:05.058624","MEAN_MOTION":15.27575099,"ECCENTRICITY":0.00013189,"INCLINATION":43.0015,"RA_OF_ASC_NODE":275.3387,"ARG_OF_PERICENTER":275.6883,"MEAN_ANOMALY":84.3818,"EPHEMERIS_TYPE":0,"CLASSIFICATION_TYPE":"U","NORAD_CAT_ID":59853,"ELEMENT_SET_NO":999,"REV_AT_EPOCH":10189,"BSTAR":-2.4375818e-5,"MEAN_MOTION_DOT":-9.33e-6,"MEAN_MOTION_DDOT":0},{"OBJECT_NAME":"COSMOS 2251 DEB","OBJECT_ID":"1993-036AWN","EPOCH":"2026-03-09T06:26:08.321568","MEAN_MOTION":15.11257706,"ECCENTRICITY":0.00842289,"INCLINATION":74.0116,"RA_OF_ASC_NODE":284.5024,"ARG_OF_PERICENTER":350.308,"MEAN_ANOMALY":9.6482,"EPHEMERIS_TYPE":0,"CLASSIFICATION_TYPE":"U","NORAD_CAT_ID":35996,"ELEMENT_SET_NO":999,"REV_AT_EPOCH":73632,"BSTAR":0.00055219842,"MEAN_MOTION_DOT":0.00010085,"MEAN_MOTION_DDOT":0}]
